[{"OBJECT_NAME":"STARLINK-34438","OBJECT_ID":"2025-223Y","EPOCH":"2026-03-09T21:24:34.764192","MEAN_MOTION":15.30199939,"ECCENTRICITY":0.00011731,"INCLINATION":53.1594,"RA_OF_ASC_NODE":293.4427,"ARG_OF_PERICENTER":75.5579,"MEAN_ANOMALY":284.5552,"EPHEMERIS_TYPE":0,"CLASSIFICATION_TYPE":"U","NORAD_CAT_ID":65876,"ELEMENT_SET_NO":999,"REV_AT_EPOCH":2423,"BSTAR":0.00066923218,"MEAN_MOTION_DOT":0.00019514,"MEAN_MOTION_DDOT":0},{"OBJECT_NAME":"CZ-6A DEB","OBJECT_ID":"2024-140ZM","EPOCH":"2026-03-09T08:08:19.885920","MEAN_MOTION":14.97554426,"ECCENTRICITY":0.01813088,"INCLINATION":90.2734,"RA_OF_ASC_NODE":12.4689,"ARG_OF_PERICENTER":116.477,"MEAN_ANOMALY":245.5188,"EPHEMERIS_TYPE":0,"CLASSIFICATION_TYPE":"U","NORAD_CAT_ID":61455,"ELEMENT_SET_NO":999,"REV_AT_EPOCH":8308,"BSTAR":0.00078895456,"MEAN_MOTION_DOT":0.00012969,"MEAN_MOTION_DDOT":0}]
